OBJECT_NAME,OBJECT_ID,EPOCH,MEAN_MOTION,ECCENTRICITY,INCLINATION,RA_OF_ASC_NODE,ARG_OF_PERICENTER,MEAN_ANOMALY,EPHEMERIS_TYPE,CLASSIFICATION_TYPE,NORAD_CAT_ID,ELEMENT_SET_NO,REV_AT_EPOCH,BSTAR,MEAN_MOTION_DOT,MEAN_MOTION_DDOT
ONEWEB-0340,2021-083W,2026-06-29T12:02:00.676608,13.18687312,.0001955,87.9182,333.0058,91.6049,268.5307,0,U,49206,999,23159,.13796E-3,.67E-6,0
ONEWEB-0341,2021-083X,2026-06-29T10:22:27.626016,13.18687014,.0002354,87.9175,333.0219,97.0715,263.0685,0,U,49207,999,23160,.54321E-4,.34E-6,0
ONEWEB-0342,2021-083Y,2026-06-28T17:08:43.640736,13.20771706,.00020188,87.9196,272.1398,103.3315,256.8044,0,U,49208,999,23830,-.13784638E-3,-.43E-6,0
ONEWEB-0343,2021-083Z,2026-06-29T10:34:36.280416,13.18687238,.0001905,87.9175,333.0190,108.2506,251.8834,0,U,49209,999,23165,.1921E-3,.89E-6,0
ONEWEB-0344,2021-083AA,2026-06-29T09:13:35.100192,13.13467584,.0002212,87.8956,317.8107,99.0283,261.1097,0,U,49210,999,23249,.42759E-3,.169E-5,0
ONEWEB-0345,2021-083AB,2026-06-29T09:01:24.227040,13.13468504,.0002205,87.8973,317.7956,99.9057,260.2321,0,U,49211,999,23250,.10566E-2,.399E-5,0
ONEWEB-0346,2021-083AC,2026-06-29T10:29:44.816064,13.18686914,.0002008,87.9172,333.0194,76.4196,283.7160,0,U,49212,999,23159,.13836E-3,.67E-6,0
ONEWEB-0348,2021-083AD,2026-06-29T07:26:54.136320,13.20771338,.0002398,87.9199,272.0253,89.9826,270.1582,0,U,49213,999,23841,-.45259E-4,-.5E-7,0
ONEWEB-0350,2021-083AE,2026-06-29T09:28:13.573056,13.13457046,.000088,87.9003,317.7977,334.7295,25.3791,0,U,49214,999,23253,-.51711E-2,-.1875E-4,0
ONEWEB-0351,2021-083AF,2026-06-28T16:44:15.643392,13.20775924,.00023634,87.9198,272.1462,116.9452,243.1923,0,U,49215,999,23829,.18968538E-3,.9E-6,0
ONEWEB-0352,2021-083AG,2026-06-29T08:46:46.384032,13.13471742,.0001941,87.8965,317.8079,111.2503,248.8833,0,U,49216,999,23262,.7286E-3,.279E-5,0
ONEWEB-0354,2021-083AH,2026-06-28T22:50:27.980736,13.20796235,.0002501,87.9198,272.0944,93.1581,266.9838,0,U,49217,999,23836,.60250739E-2,.2464E-4,0
ONEWEB-0355,2021-083AJ,2026-06-29T09:28:27.043680,13.13451487,.0000825,87.9006,317.8042,357.1205,2.9919,0,U,49218,999,23250,-.95856E-2,-.3485E-4,0
ONEWEB-0357,2021-083AK,2026-06-28T22:45:40.259232,13.20773725,.00021005,87.9196,272.0888,105.6037,254.5328,0,U,49219,999,23836,-.54332563E-4,-.9E-7,0
ONEWEB-0332,2021-090A,2026-06-29T07:42:45.664704,13.14502284,.0001789,87.8972,287.2910,105.1079,255.0248,0,U,49279,999,22917,-.4823E-3,-.166E-5,0
ONEWEB-0347,2021-090B,2026-06-29T07:36:35.769024,13.20771849,.0001808,87.9196,272.0235,103.7800,256.3534,0,U,49280,999,23264,-.13448E-3,-.42E-6,0
ONEWEB-0349,2021-090C,2026-06-29T06:33:33.100128,13.20773550,.0002078,87.9195,272.0329,100.4292,259.7075,0,U,49281,999,23142,.23798E-3,.11E-5,0
ONEWEB-0353,2021-090D,2026-06-29T07:31:20.417664,13.14503630,.0001735,87.8973,287.2882,105.3927,254.7395,0,U,49282,999,22917,-.92188E-4,-.21E-6,0
ONEWEB-0356,2021-090E,2026-06-29T06:31:06.405024,13.20771419,.0001607,87.9195,272.0266,77.2567,282.8746,0,U,49283,999,23142,-.35346E-3,-.131E-5,0
ONEWEB-0358,2021-090F,2026-06-29T07:23:05.802720,13.20777319,.0002032,87.9198,272.0267,94.1775,265.9591,0,U,49284,999,23215,.19919E-3,.94E-6,0
ONEWEB-0359,2021-090G,2026-06-28T16:37:10.562304,13.20773791,.00022556,87.9195,272.1419,95.2904,264.8487,0,U,49285,999,23205,-.1384193E-3,-.43E-6,0
ONEWEB-0360,2021-090H,2026-06-29T06:55:22.657152,13.20770146,.0002127,87.9197,272.0295,101.1439,258.9933,0,U,49286,999,23144,.13197E-3,.67E-6,0
ONEWEB-0361,2021-090J,2026-06-29T06:28:42.657024,13.20772233,.0002094,87.9196,272.0316,96.3943,263.7429,0,U,49287,999,23189,.28897E-3,.13E-5,0
ONEWEB-0362,2021-090K,2026-06-29T07:23:24.279360,13.19724846,.0002103,87.9180,302.5635,105.8261,254.3103,0,U,49288,999,22851,.9634E-4,.52E-6,0
ONEWEB-0363,2021-090L,2026-06-29T06:50:31.938432,13.20771585,.0001914,87.9197,272.0288,90.8542,269.2811,0,U,49289,999,23190,.21433E-3,.1E-5,0
ONEWEB-0364,2021-090M,2026-06-28T22:40:50.067552,13.20772180,.00020538,87.9194,272.1042,100.0654,260.0711,0,U,49290,999,23299,-.10076477E-3,-.28E-6,0
ONEWEB-0365,2021-090N,2026-06-29T07:37:03.139680,13.19725213,.0001919,87.9186,302.5509,102.8979,257.2368,0,U,49291,999,22802,.55731E-4,.35E-6,0
ONEWEB-0366,2021-090P,2026-06-29T07:26:46.661856,13.14503189,.0002002,87.8971,287.2906,99.8708,260.2647,0,U,49292,999,22915,-.84913E-4,-.19E-6,0
ONEWEB-0367,2021-090Q,2026-06-29T06:49:19.763328,13.20772408,.0002077,87.9197,272.0303,105.1129,255.0234,0,U,49293,999,23142,.1879E-3,.89E-6,0
ONEWEB-0368,2021-090R,2026-06-28T22:55:23.280384,13.20770725,.00012978,87.9185,272.1047,99.7008,260.4272,0,U,49294,999,23253,-.2233383E-3,-.78E-6,0
