[
  {
    "name": "ONEWEB-0340",
    "noradId": "49206",
    "line1": "1 49206U 21083W   26180.50139672  .00000067  00000+0  13796-3 0  9996",
    "line2": "2 49206  87.9182 333.0058 0001955  91.6049 268.5307 13.18687312231590"
  },
  {
    "name": "ONEWEB-0341",
    "noradId": "49207",
    "line1": "1 49207U 21083X   26180.43226419  .00000034  00000+0  54321-4 0  9999",
    "line2": "2 49207  87.9175 333.0219 0002354  97.0715 263.0685 13.18687014231606"
  },
  {
    "name": "ONEWEB-0342",
    "noradId": "49208",
    "line1": "1 49208U 21083Y   26179.71439399 -.00000043  00000+0 -13785-3 0  9992",
    "line2": "2 49208  87.9196 272.1398 0002018 103.3315 256.8044 13.20771706238303"
  },
  {
    "name": "ONEWEB-0343",
    "noradId": "49209",
    "line1": "1 49209U 21083Z   26180.44069769  .00000089  00000+0  19210-3 0  9992",
    "line2": "2 49209  87.9175 333.0190 0001905 108.2506 251.8834 13.18687238231654"
  },
  {
    "name": "ONEWEB-0344",
    "noradId": "49210",
    "line1": "1 49210U 21083AA  26180.38443403  .00000169  00000+0  42759-3 0  9991",
    "line2": "2 49210  87.8956 317.8107 0002212  99.0283 261.1097 13.13467584232494"
  },
  {
    "name": "ONEWEB-0345",
    "noradId": "49211",
    "line1": "1 49211U 21083AB  26180.37597485  .00000399  00000+0  10566-2 0  9996",
    "line2": "2 49211  87.8973 317.7956 0002205  99.9057 260.2321 13.13468504232500"
  },
  {
    "name": "ONEWEB-0346",
    "noradId": "49212",
    "line1": "1 49212U 21083AC  26180.43732426  .00000067  00000+0  13836-3 0  9996",
    "line2": "2 49212  87.9172 333.0194 0002008  76.4196 283.7160 13.18686914231594"
  },
  {
    "name": "ONEWEB-0348",
    "noradId": "49213",
    "line1": "1 49213U 21083AD  26180.31034880 -.00000005  00000+0 -45259-4 0  9992",
    "line2": "2 49213  87.9199 272.0253 0002398  89.9826 270.1582 13.20771338238417"
  },
  {
    "name": "ONEWEB-0350",
    "noradId": "49214",
    "line1": "1 49214U 21083AE  26180.39460154 -.00001875  00000+0 -51711-2 0  9992",
    "line2": "2 49214  87.9003 317.7977 0000880 334.7295  25.3791 13.13457046232535"
  },
  {
    "name": "ONEWEB-0351",
    "noradId": "49215",
    "line1": "1 49215U 21083AF  26179.69740328  .00000090  00000+0  18969-3 0  9993",
    "line2": "2 49215  87.9198 272.1462 0002363 116.9452 243.1923 13.20775924238299"
  },
  {
    "name": "ONEWEB-0352",
    "noradId": "49216",
    "line1": "1 49216U 21083AG  26180.36581463  .00000279  00000+0  72860-3 0  9992",
    "line2": "2 49216  87.8965 317.8079 0001941 111.2503 248.8833 13.13471742232624"
  },
  {
    "name": "ONEWEB-0354",
    "noradId": "49217",
    "line1": "1 49217U 21083AH  26179.95171274  .00002464  00000+0  60251-2 0  9999",
    "line2": "2 49217  87.9198 272.0944 0002501  93.1581 266.9838 13.20796235238362"
  },
  {
    "name": "ONEWEB-0355",
    "noradId": "49218",
    "line1": "1 49218U 21083AJ  26180.39475745 -.00003485  00000+0 -95856-2 0  9995",
    "line2": "2 49218  87.9006 317.8042 0000825 357.1205   2.9919 13.13451487232508"
  },
  {
    "name": "ONEWEB-0357",
    "noradId": "49219",
    "line1": "1 49219U 21083AK  26179.94838263 -.00000009  00000+0 -54333-4 0  9999",
    "line2": "2 49219  87.9196 272.0888 0002100 105.6037 254.5328 13.20773725238365"
  },
  {
    "name": "ONEWEB-0332",
    "noradId": "49279",
    "line1": "1 49279U 21090A   26180.32136186 -.00000166  00000+0 -48230-3 0  9994",
    "line2": "2 49279  87.8972 287.2910 0001789 105.1079 255.0248 13.14502284229178"
  },
  {
    "name": "ONEWEB-0347",
    "noradId": "49280",
    "line1": "1 49280U 21090B   26180.31708066 -.00000042  00000+0 -13448-3 0  9993",
    "line2": "2 49280  87.9196 272.0235 0001808 103.7800 256.3534 13.20771849232649"
  },
  {
    "name": "ONEWEB-0349",
    "noradId": "49281",
    "line1": "1 49281U 21090C   26180.27329977  .00000110  00000+0  23798-3 0  9992",
    "line2": "2 49281  87.9195 272.0329 0002078 100.4292 259.7075 13.20773550231425"
  },
  {
    "name": "ONEWEB-0353",
    "noradId": "49282",
    "line1": "1 49282U 21090D   26180.31343076 -.00000021  00000+0 -92188-4 0  9997",
    "line2": "2 49282  87.8973 287.2882 0001735 105.3927 254.7395 13.14503630229171"
  },
  {
    "name": "ONEWEB-0356",
    "noradId": "49283",
    "line1": "1 49283U 21090E   26180.27160191 -.00000131  00000+0 -35346-3 0  9992",
    "line2": "2 49283  87.9195 272.0266 0001607  77.2567 282.8746 13.20771419231424"
  },
  {
    "name": "ONEWEB-0358",
    "noradId": "49284",
    "line1": "1 49284U 21090F   26180.30770605  .00000094  00000+0  19919-3 0  9998",
    "line2": "2 49284  87.9198 272.0267 0002032  94.1775 265.9591 13.20777319232157"
  },
  {
    "name": "ONEWEB-0359",
    "noradId": "49285",
    "line1": "1 49285U 21090G   26179.69248336 -.00000043  00000+0 -13842-3 0  9995",
    "line2": "2 49285  87.9195 272.1419 0002255  95.2904 264.8487 13.20773791232059"
  },
  {
    "name": "ONEWEB-0360",
    "noradId": "49286",
    "line1": "1 49286U 21090H   26180.28845668  .00000067  00000+0  13197-3 0  9991",
    "line2": "2 49286  87.9197 272.0295 0002127 101.1439 258.9933 13.20770146231444"
  },
  {
    "name": "ONEWEB-0361",
    "noradId": "49287",
    "line1": "1 49287U 21090J   26180.26993816  .00000130  00000+0  28897-3 0  9993",
    "line2": "2 49287  87.9196 272.0316 0002094  96.3943 263.7429 13.20772233231898"
  },
  {
    "name": "ONEWEB-0362",
    "noradId": "49288",
    "line1": "1 49288U 21090K   26180.30791990  .00000052  00000+0  96340-4 0  9990",
    "line2": "2 49288  87.9180 302.5635 0002103 105.8261 254.3103 13.19724846228510"
  },
  {
    "name": "ONEWEB-0363",
    "noradId": "49289",
    "line1": "1 49289U 21090L   26180.28509188  .00000100  00000+0  21433-3 0  9998",
    "line2": "2 49289  87.9197 272.0288 0001914  90.8542 269.2811 13.20771585231900"
  },
  {
    "name": "ONEWEB-0364",
    "noradId": "49290",
    "line1": "1 49290U 21090M   26179.94502393 -.00000028  00000+0 -10076-3 0  9994",
    "line2": "2 49290  87.9194 272.1042 0002053 100.0654 260.0711 13.20772180232991"
  },
  {
    "name": "ONEWEB-0365",
    "noradId": "49291",
    "line1": "1 49291U 21090N   26180.31739745  .00000035  00000+0  55731-4 0  9995",
    "line2": "2 49291  87.9186 302.5509 0001919 102.8979 257.2368 13.19725213228027"
  },
  {
    "name": "ONEWEB-0366",
    "noradId": "49292",
    "line1": "1 49292U 21090P   26180.31026229 -.00000019  00000+0 -84913-4 0  9990",
    "line2": "2 49292  87.8971 287.2906 0002002  99.8708 260.2647 13.14503189229158"
  },
  {
    "name": "ONEWEB-0367",
    "noradId": "49293",
    "line1": "1 49293U 21090Q   26180.28425652  .00000089  00000+0  18790-3 0  9994",
    "line2": "2 49293  87.9197 272.0303 0002077 105.1129 255.0234 13.20772408231429"
  },
  {
    "name": "ONEWEB-0368",
    "noradId": "49294",
    "line1": "1 49294U 21090R   26179.95513056 -.00000078  00000+0 -22334-3 0  9992",
    "line2": "2 49294  87.9185 272.1047 0001297  99.7008 260.4272 13.20770725232535"
  }
]